NORAD_CAT_ID,OBJECT_NAME,OBJECT_TYPE,EPOCH,MEAN_MOTION,ECCENTRICITY,INCLINATION,RA_OF_ASC_NODE,ARG_OF_PERICENTER,MEAN_ANOMALY,BSTAR,MEAN_MOTION_DOT,MEAN_MOTION_DDOT,TLE_LINE0,TLE_LINE1,TLE_LINE2,SEMIMAJOR_AXIS,PERIOD,APOGEE,PERIGEE,DECAYED
49771.0,STARLINK-3201,PAYLOAD,2023-04-28 19:18:02,15.08848109,0.0001542,53.216,154.2828,90.9346,269.1822,-5.1915e-05,-1.114e-05,0.0,0 STARLINK-3201,1 49771U 21115AZ  23118.80419577 -.00001114  00000-0 -51915-4 0  9998,2 49771  53.2160 154.2828 0001542  90.9346 269.1822 15.08848109 78896,6917.856,95.437,540.787,538.654,0.0
49771.0,STARLINK-3201,PAYLOAD,2023-04-29 11:11:53,15.08847443,0.000156,53.2166,151.3078,96.1753,263.9417,-2.2598e-05,-6.48e-06,0.0,0 STARLINK-3201,1 49771U 21115AZ  23119.46659392 -.00000648  00000-0 -22598-4 0  9998,2 49771  53.2166 151.3078 0001560  96.1753 263.9417 15.08847443 77887,6917.858,95.437,540.802,538.643,0.0
49771.0,STARLINK-3201,PAYLOAD,2023-04-30 11:02:40,15.0884264,0.0001706,53.2167,146.8468,93.1297,266.989,-3.7617e-05,-8.87e-06,0.0,0 STARLINK-3201,1 49771U 21115AZ  23120.46019505 -.00000887  00000-0 -37617-4 0  9999,2 49771  53.2167 146.8468 0001706  93.1297 266.9890 15.08842640 78032,6917.872,95.437,540.918,538.557,0.0
49771.0,STARLINK-3201,PAYLOAD,2023-04-30 14:13:27,15.08842749,0.000146,53.216,146.2534,88.0551,272.0608,3.7676e-06,-2.28e-06,0.0,0 STARLINK-3201,1 49771U 21115AZ  23120.59267467 -.00000228  00000-0  37676-5 0  9999,2 49771  53.2160 146.2534 0001460  88.0551 272.0608 15.08842749 79166,6917.872,95.437,540.747,538.727,0.0
49771.0,STARLINK-3201,PAYLOAD,2023-05-01 06:07:19,15.08819685,0.0001336,53.2174,143.2779,96.8896,263.2248,0.00021814,3.184e-05,0.0,0 STARLINK-3201,1 49771U 21115AZ  23121.25509020  .00003184  00000-0  21814-3 0  9995,2 49771  53.2174 143.2779 0001336  96.8896 263.2248 15.08819685 79266,6917.942,95.439,540.732,538.883,0.0
49771.0,STARLINK-3201,PAYLOAD,2023-05-01 07:42:42,15.08833713,0.0001431,53.2177,142.9793,100.9874,259.1279,3.3797e-06,-2.34e-06,0.0,0 STARLINK-3201,1 49771U 21115AZ  23121.32132435 -.00000234  00000-0  33797-5 0  9994,2 49771  53.2177 142.9793 0001431 100.9874 259.1279 15.08833713 79277,6917.9,95.438,540.755,538.775,0.0
49771.0,STARLINK-3201,PAYLOAD,2023-05-02 05:58:05,15.088401,0.0001492,53.2169,138.8163,110.2726,249.8427,9.4394e-05,1.215e-05,0.0,0 STARLINK-3201,1 49771U 21115AZ  23122.24867997  .00001215  00000-0  94394-4 0  9992,2 49771  53.2169 138.8163 0001492 110.2726 249.8427 15.08840100 79415,6917.88,95.438,540.777,538.713,0.0
49771.0,STARLINK-3201,PAYLOAD,2023-05-02 10:44:15,15.08840493,0.000148,53.2167,137.925,105.4508,254.6647,9.154e-05,1.169e-05,0.0,0 STARLINK-3201,1 49771U 21115AZ  23122.44740034  .00001169  00000-0  91540-4 0  9994,2 49771  53.2167 137.9250 0001480 105.4508 254.6647 15.08840493 78334,6917.879,95.438,540.768,538.72,0.0
49771.0,STARLINK-3201,PAYLOAD,2023-05-03 10:35:02,15.08845611,0.0001325,53.2162,133.4674,87.5448,272.5696,0.00016029,2.264e-05,0.0,0 STARLINK-3201,1 49771U 21115AZ  23123.44099769  .00002264  00000-0  16029-3 0  9992,2 49771  53.2162 133.4674 0001325  87.5448 272.5696 15.08845611 79590,6917.863,95.437,540.645,538.812,0.0
49771.0,STARLINK-3201,PAYLOAD,2023-05-04 10:25:48,15.08847883,0.0001348,53.2162,129.0068,87.7981,272.3165,9.0485e-05,1.153e-05,0.0,0 STARLINK-3201,1 49771U 21115AZ  23124.43459475  .00001153  00000-0  90485-4 0  9991,2 49771  53.2162 129.0068 0001348  87.7981 272.3165 15.08847883 78633,6917.856,95.437,540.654,538.789,0.0
49771.0,STARLINK-3201,PAYLOAD,2023-05-05 00:44:18,15.08836436,0.0001669,53.2174,126.331,90.7806,269.3378,-3.2893e-05,-8.11e-06,0.0,0 STARLINK-3201,1 49771U 21115AZ  23125.03076616 -.00000811  00000-0 -32893-4 0  9991,2 49771  53.2174 126.3310 0001669  90.7806 269.3378 15.08836436 79839,6917.891,95.438,540.911,538.602,0.0
49771.0,STARLINK-3201,PAYLOAD,2023-05-05 16:38:09,15.08834646,0.0001252,53.2164,123.3568,95.9487,264.1648,-3.3314e-05,-8.18e-06,0.0,0 STARLINK-3201,1 49771U 21115AZ  23125.69316845 -.00000818  00000-0 -33314-4 0  9990,2 49771  53.2164 123.3568 0001252  95.9487 264.1648 15.08834646 78822,6917.897,95.438,540.628,538.896,0.0
49771.0,STARLINK-3201,PAYLOAD,2023-05-06 06:56:37,15.08841497,0.0001178,53.2161,120.6805,95.4502,264.6625,4.0601e-05,3.58e-06,0.0,0 STARLINK-3201,1 49771U 21115AZ  23126.28932532  .00000358  00000-0  40601-4 0  9997,2 49771  53.2161 120.6805 0001178  95.4502 264.6625 15.08841497 80020,6917.876,95.437,540.556,538.926,0.0
49771.0,STARLINK-3201,PAYLOAD,2023-05-07 06:47:24,15.08850019,0.000116,53.2151,116.2198,93.3603,266.7522,0.00034295,5.176e-05,0.0,0 STARLINK-3201,1 49771U 21115AZ  23127.28292106  .00005176  00000-0  34295-3 0  9998,2 49771  53.2151 116.2198 0001160  93.3603 266.7522 15.08850019 79066,6917.85,95.437,540.517,538.912,0.0
49771.0,STARLINK-3201,PAYLOAD,2023-05-07 16:19:43,15.08845026,0.0001152,53.2149,114.4352,84.0048,276.1075,0.0002006,2.907e-05,0.0,0 STARLINK-3201,1 49771U 21115AZ  23127.68036348  .00002907  00000-0  20060-3 0  9990,2 49771  53.2149 114.4352 0001152  84.0048 276.1075 15.08845026 80237,6917.865,95.437,540.527,538.933,0.0
49771.0,STARLINK-3201,PAYLOAD,2023-05-08 05:02:48,15.08837613,0.0001218,53.2146,112.0563,85.026,275.0872,2.3761e-05,9e-07,0.0,0 STARLINK-3201,1 49771U 21115AZ  23128.21028747  .00000090  00000-0  23761-4 0  9997,2 49771  53.2146 112.0563 0001218  85.0260 275.0872 15.08837613 80317,6917.888,95.438,540.595,538.91,0.0
49771.0,STARLINK-3201,PAYLOAD,2023-05-08 16:10:30,15.08838192,0.0001288,53.2156,109.9749,85.7518,274.3621,-7.6133e-07,-3e-06,0.0,0 STARLINK-3201,1 49771U 21115AZ  23128.67396765 -.00000300  00000-0 -76133-6 0  9994,2 49771  53.2156 109.9749 0001288  85.7518 274.3621 15.08838192 79279,6917.886,95.438,540.642,538.86,0.0
49771.0,STARLINK-3201,PAYLOAD,2023-05-09 04:53:37,15.08826834,0.0001313,53.2166,107.5973,88.2935,271.8207,-0.00014526,-2.598e-05,0.0,0 STARLINK-3201,1 49771U 21115AZ  23129.20390467 -.00002598  00000-0 -14526-3 0  9993,2 49771  53.2166 107.5973 0001313  88.2935 271.8207 15.08826834 80468,6917.921,95.438,540.694,538.877,0.0
49771.0,STARLINK-3201,PAYLOAD,2023-05-09 09:39:46,15.08824543,0.000129,53.2164,106.7052,100.366,259.7477,-0.00015009,-2.675e-05,0.0,0 STARLINK-3201,1 49771U 21115AZ  23129.40262727 -.00002675  00000-0 -15009-3 0  9995,2 49771  53.2164 106.7052 0001290 100.3660 259.7477 15.08824543 79388,6917.928,95.439,540.685,538.9,0.0
49771.0,STARLINK-3201,PAYLOAD,2023-05-10 04:44:24,15.08832152,0.0001313,53.2169,103.1354,88.8473,271.267,9.8604e-05,1.281e-05,0.0,0 STARLINK-3201,1 49771U 21115AZ  23130.19750334  .00001281  00000-0  98604-4 0  9992,2 49771  53.2169 103.1354 0001313  88.8473 271.2670 15.08832152 79500,6917.904,95.438,540.678,538.861,0.0
49771.0,STARLINK-3201,PAYLOAD,2023-05-11 04:35:10,15.0884803,0.0001145,53.2165,98.6746,90.1753,269.937,0.00034167,5.155e-05,0.0,0 STARLINK-3201,1 49771U 21115AZ  23131.19108974  .00005155  00000-0  34167-3 0  9997,2 49771  53.2165  98.6746 0001145  90.1753 269.9370 15.08848030 79658,6917.856,95.437,540.513,538.929,0.0
49771.0,STARLINK-3201,PAYLOAD,2023-05-12 04:25:57,15.08843976,0.0001312,53.2172,94.2109,92.3091,267.8051,0.00013985,1.939e-05,0.0,0 STARLINK-3201,1 49771U 21115AZ  23132.18469842  .00001939  00000-0  13985-3 0  9992,2 49771  53.2172  94.2109 0001312  92.3091 267.8051 15.08843976 80914,6917.868,95.437,540.641,538.826,0.0
49771.0,STARLINK-3201,PAYLOAD,2023-05-13 04:16:44,15.08851232,0.0001295,53.2174,89.7585,107.85,252.2633,-7.2934e-05,-1.449e-05,0.0,0 STARLINK-3201,1 49771U 21115AZ  23133.17829415 -.00001449  00000-0 -72934-4 0  9996,2 49771  53.2174  89.7585 0001295 107.8500 252.2633 15.08851232 79950,6917.846,95.437,540.607,538.815,0.0
49771.0,STARLINK-3201,PAYLOAD,2023-05-14 04:07:31,15.08838569,0.0001312,53.2172,85.2983,117.5328,242.5798,2.4412e-05,1.01e-06,0.0,0 STARLINK-3201,1 49771U 21115AZ  23134.17189788  .00000101  00000-0  24412-4 0  9999,2 49771  53.2172  85.2983 0001312 117.5328 242.5798 15.08838569 81211,6917.885,95.438,540.657,538.842,0.0
49771.0,STARLINK-3201,PAYLOAD,2023-05-15 03:58:18,15.0884567,0.0001131,53.2172,80.8371,106.746,253.3657,0.00010589,1.398e-05,0.0,0 STARLINK-3201,1 49771U 21115AZ  23135.16549066  .00001398  00000-0  10589-3 0  9996,2 49771  53.2172  80.8371 0001131 106.7460 253.3657 15.08845670 81360,6917.863,95.437,540.51,538.946,0.0
49771.0,STARLINK-3201,PAYLOAD,2023-05-15 13:30:37,15.08841236,0.0001076,53.2172,79.051,90.0002,270.1113,9.5458e-05,1.232e-05,0.0,0 STARLINK-3201,1 49771U 21115AZ  23135.56293353  .00001232  00000-0  95458-4 0  9991,2 49771  53.2172  79.0510 0001076  90.0002 270.1113 15.08841236 81425,6917.877,95.437,540.486,538.997,0.0
49771.0,STARLINK-3201,PAYLOAD,2023-05-16 05:24:28,15.0884281,0.0001234,53.218,76.0729,103.5108,256.6022,7.8974e-05,9.69e-06,0.0,0 STARLINK-3201,1 49771U 21115AZ  23136.22533308  .00000969  00000-0  78974-4 0  9992,2 49771  53.2180  76.0729 0001234 103.5108 256.6022 15.08842810 80411,6917.872,95.437,540.59,538.883,0.0
49771.0,STARLINK-3201,PAYLOAD,2023-05-16 19:42:57,15.0884008,0.0001241,53.2177,73.3976,95.4515,264.6619,-3.8678e-05,-9.03e-06,0.0,0 STARLINK-3201,1 49771U 21115AZ  23136.82149880 -.00000903  00000-0 -38678-4 0  9993,2 49771  53.2177  73.3976 0001241  95.4515 264.6619 15.08840080 81611,6917.88,95.438,540.604,538.887,0.0
49771.0,STARLINK-3201,PAYLOAD,2023-05-17 05:15:15,15.08846139,0.0001161,53.2174,71.6154,99.3706,260.7418,4.2299e-05,3.86e-06,0.0,0 STARLINK-3201,1 49771U 21115AZ  23137.21893091  .00000386  00000-0  42299-4 0  9994,2 49771  53.2174  71.6154 0001161  99.3706 260.7418 15.08846139 81674,6917.862,95.437,540.53,538.923,0.0
49771.0,STARLINK-3201,PAYLOAD,2023-05-18 01:55:16,15.08837256,0.0001279,53.2173,67.7461,116.3218,243.7906,1.3896e-05,-6.7e-07,0.0,0 STARLINK-3201,1 49771U 21115AZ  23138.08005710 -.00000067  00000-0  13896-4 0  9991,2 49771  53.2173  67.7461 0001279 116.3218 243.7906 15.08837256 81806,6917.889,95.438,540.639,538.869,0.0
